#aV2007  5 17  0  0   .00000000      96 DD+AD WGS84 FIT  NGA
## 1427 345600.00000000   900.00000000 54237  .0000000000000
+   30     1  2  3  4  5  6  7  8  9 10 11 12 13 14 16 17 18
+         19 20 21 22 23 24 25 26 27 28 29 30 31  0  0  0  0
+          0  0  0  0  0  0  0  0  0  0  0  0  0  0  0  0  0
+          0  0  0  0  0  0  0  0  0  0  0  0  0  0  0  0  0
+          0  0  0  0  0  0  0  0  0  0  0  0  0  0  0  0  0
++         0  0  0  0  0  0  0  0  0  0  0  0  0  0  0  0  0
++         0  0  0  0  0  0  0  0  0  0  0  0  0  0  0  0  0
++         0  0  0  0  0  0  0  0  0  0  0  0  0  0  0  0  0
++         0  0  0  0  0  0  0  0  0  0  0  0  0  0  0  0  0
++         0  0  0  0  0  0  0  0  0  0  0  0  0  0  0  0  0
%c cc cc ccc ccc cccc cccc cccc cccc ccccc ccccc ccccc ccccc
%c cc cc ccc ccc cccc cccc cccc cccc ccccc ccccc ccccc ccccc
%f  0.0000000  0.000000000  0.00000000000  0.000000000000000
%f  0.0000000  0.000000000  0.00000000000  0.000000000000000
%i    0    0    0    0      0      0      0      0         0
%i    0    0    0    0      0      0      0      0         0
/*      NGA, ST. LOUIS,MO.                                  
/*   EPHEMERIS COMPUTED FROM  3 DAYS OF DATA                
/* CCCCCCCCCCCCCCCCCCCCCCCCCCCCCCCCCCCCCCCCCCCCCCCCCCCCCCCCC
/* CCCCCCCCCCCCCCCCCCCCCCCCCCCCCCCCCCCCCCCCCCCCCCCCCCCCCCCCC
*  2007  5 17 13  0   .00000000                                                 
P  1 -14285.162343  22334.040596   -624.651649    128.274465                    
V  1  -1099.074824  -1903.020823 -32426.726830       .029292                    
P  2  13556.205139 -13403.819130  18158.572260    107.198664                    
V  2  23686.345788   1363.271004 -16762.838250       .029052                    
P  3  -9582.039589  24555.160827  -1214.490032     58.679593                    
V  3  -4385.469120   -448.128317  31120.160851       .056008                    
P  4  23637.564314  -7351.734826  10033.466497     10.906693                    
V  4  12759.571562   2574.685594 -27625.473937      -.001277                    
P  5 -15274.503951 -21829.110047   -674.932857       .756871                    
V  5   3054.437649  -1507.006367 -31158.086266      -.154085                    
P  6 -12274.434475 -10575.951806  21233.841877    185.488587                    
V  6  12501.176605 -23521.931006  -4574.887419       .135634                    
P  7 -14693.197581  -6206.073137  21587.056923    299.294059                    
V  7  11381.610796 -24153.057169    748.746936      -.170868                    
P  8  26797.683279    417.040123   -467.879274   -107.622342                    
V  8    394.929320   1899.118116  31839.641023      -.012621                    
P  9  -7252.319532 -14557.604583 -21632.308166     70.688679                    
V  9  25962.993316  -1921.295056  -7402.475968       .016799                    
P 10   3424.690548 -18969.010869  18011.867428    102.004300                    
V 10  12932.457252  19340.365676  18104.615180       .005671                    
P 11  10201.261913  14414.772821 -20005.016146     16.145162                    
V 11 -24747.925067   5877.985087  -8135.329093       .009813                    
P 12 -11605.515439 -23675.573775  -3342.994122    -44.994147                    
V 12   4607.915102   2321.405022 -31347.586752      -.005741                    
P 13  12011.552515   8012.032673  22189.150070    173.154103                    
V 13 -14604.889327  24282.139080   -815.943405       .035113                    
P 14 -18308.338134  11656.571757 -15172.833471     20.560852                    
V 14   8440.105769 -17520.485272 -23591.477975       .017529                    
P 16  -8251.472296  14470.885436  20739.264730    148.502514                    
V 16 -13996.172180 -22129.395441  10060.352467       .029941                    
P 17  18487.919150  -9042.860035 -16701.238301     67.930073                    
V 17  -8747.937424  19504.285135 -20353.447728      -.012236                    
P 18 -18529.275291 -12813.084008 -14193.147016   -249.677376                    
V 18  -6859.164583 -16930.248481  23672.787934       .008515                    
P 19  -5458.108070  23292.753340 -11314.852005     34.731479                    
V 19 -10048.567999  10864.629706  27082.466288       .033918                    
P 20  12148.595482  23480.705346  -2878.612584    -24.688979                    
V 20  -4419.334103  -1406.773772 -31265.987915      -.003633                    
P 21 -25053.169853  -5972.586081   7736.744299     76.942446                    
V 21   9579.271997  -2630.850340  28857.738325       .004947                    
P 22 -16786.568351   -387.277244 -20434.509900    182.347734                    
V 22 -11608.808388 -23640.860897   9879.741113       .020360                    
P 23   5146.081520  17611.762021  19044.657058    167.002104                    
V 23 -13009.658043  20690.293506 -15745.284455       .026405                    
P 24 -15392.099594 -12837.352339  17485.611491       .691290                    
V 24  21976.744622  -1162.436899  18998.455663       .026894                    
P 25  13866.486015  12150.604463  19468.869270    257.530706                    
V 25 -23625.179756   4013.717946  14780.550792       .262309                    
P 26   6812.693868 -23631.142518  -9672.928249   -198.962893                    
V 26   7754.323116  -9103.068983  29570.787066      -.207258                    
P 27  24536.369628   4913.019482   9891.615442    111.234927                    
V 27 -11357.184725   3018.945276  28312.968760       .023164                    
P 28  17905.629737   4864.696344 -18796.246601       .940064                    
V 28  11025.709369  21872.623815  15543.219731      -.007416                    
P 29   9971.653835 -23970.749847  -4347.866667      2.803175                    
V 29   4759.015329  -4026.293779  31979.473804       .003734                    
P 30 -17598.733598 -18947.898167   6008.238812     34.063904                    
V 30  -1780.940852  -8414.679143 -30095.484565       .010410                    
P 31 -22668.327218   8390.225557  11290.998226     19.489045                    
V 31 -14057.955849  -1933.632415 -27194.442139      -.005919                    
EOF
